STARLINK-34107          
1 63960U 25099J   26017.94007908  .00015647  00000+0  57651-3 0  9991
2 63960  43.0023 102.9335 0001161 262.4533  97.6187 15.27602744 39575
STARLINK-34121          
1 63961U 25099K   26017.54133676  .00020629  00000+0  75640-3 0  9994
2 63961  42.9997 105.0990 0001134 279.0025  81.0698 15.27609748 39514
STARLINK-34103          
1 63962U 25099L   26017.60286598  .00020018  00000+0  73438-3 0  9999
2 63962  42.9994 104.6989 0001458 258.6477 101.4211 15.27607319 39529
STARLINK-33801          
1 63963U 25099M   26017.92209135  .00024859  00000+0  91002-3 0  9991
2 63963  42.9947 102.7862 0000763 289.6250  70.4519 15.27573014 39573
STARLINK-34135          
1 63964U 25099N   26017.92594863  .00015677  00000+0  57788-3 0  9998
2 63964  43.0002 102.8207 0000344  21.4822 338.6044 15.27586927 39573
STARLINK-34147          
1 63965U 25099P   26017.91824162  .00014100  00000+0  52097-3 0  9994
2 63965  42.9939 102.7585 0002671  55.7397 304.3707 15.27576747 39576
STARLINK-33960          
1 63966U 25099Q   26017.91438087  .00000919  00000+0  42887-4 0  9992
2 63966  42.9984 102.7267 0000273 299.1791  60.9034 15.27575168 39576
STARLINK-34153          
1 63967U 25099R   26017.64640979  .00025173  00000+0  92036-3 0  9997
2 63967  43.0011 104.1584 0001263 274.9682  85.1026 15.27609554 39531
STARLINK-33963          
1 63968U 25099S   26017.58490274  .00020908  00000+0  76762-3 0  9991
2 63968  42.9987 104.5555 0001363 248.4086 111.6621 15.27559098 39521
STARLINK-34112          
1 63969U 25099T   26017.57716728  .00025609  00000+0  93605-3 0  9994
2 63969  43.0017 104.4988 0001641 267.8539  92.2125 15.27609240 39522
STARLINK-34084          
1 63970U 25099U   26017.57331101  .00023155  00000+0  84737-3 0  9994
2 63970  42.9998 104.4673 0001369 262.9104  97.1592 15.27616322 39523
STARLINK-34138          
1 63971U 25099V   26017.53796230  .00027659  00000+0  10096-2 0  9998
2 63971  43.0006 101.6039 0000855 274.6871  85.3883 15.27620319 39557
STARLINK-34115          
1 63972U 25099W   26017.91999307  .00020128  00000+0  73810-3 0  9999
2 63972  43.0024  99.3122 0003413 280.2340  79.8127 15.27615849 39619
STARLINK-34028          
1 63973U 25099X   26017.94955325  .00023808  00000+0  87105-3 0  9995
2 63973  43.0046  99.5311 0001785 279.5358  80.5292 15.27612198 39612
STARLINK-33942          
1 63974U 25099Y   26017.94570458  .00006024  00000+0  22823-3 0  9993
2 63974  43.0013  99.4995 0001075 247.8062 112.2675 15.27584358 39610
STARLINK-34139          
1 63975U 25099Z   26017.94184262  .00023805  00000+0  87092-3 0  9993
2 63975  43.0044  99.4712 0002322 262.3131  97.7457 15.27611473 39521
