[{"OBJECT_NAME":"STARLINK-34107","OBJECT_ID":"2025-099J","EPOCH":"2026-01-17T22:33:42.832512","MEAN_MOTION":15.27602744,"ECCENTRICITY":0.00011618,"INCLINATION":43.0023,"RA_OF_ASC_NODE":102.9335,"ARG_OF_PERICENTER":262.4533,"MEAN_ANOMALY":97.6187,"EPHEMERIS_TYPE":0,"CLASSIFICATION_TYPE":"U","NORAD_CAT_ID":63960,"ELEMENT_SET_NO":999,"REV_AT_EPOCH":3957,"BSTAR":0.00057651052,"MEAN_MOTION_DOT":0.00015647,"MEAN_MOTION_DDOT":0},{"OBJECT_NAME":"STARLINK-34121","OBJECT_ID":"2025-099K","EPOCH":"2026-01-17T12:59:31.496064","MEAN_MOTION":15.27609748,"ECCENTRICITY":0.00011343,"INCLINATION":42.9997,"RA_OF_ASC_NODE":105.099,"ARG_OF_PERICENTER":279.0025,"MEAN_ANOMALY":81.0698,"EPHEMERIS_TYPE":0,"CLASSIFICATION_TYPE":"U","NORAD_CAT_ID":63961,"ELEMENT_SET_NO":999,"REV_AT_EPOCH":3951,"BSTAR":0.00075639582,"MEAN_MOTION_DOT":0.00020629,"MEAN_MOTION_DDOT":0},{"OBJECT_NAME":"STARLINK-34103","OBJECT_ID":"2025-099L","EPOCH":"2026-01-17T14:28:07.620672","MEAN_MOTION":15.27607319,"ECCENTRICITY":0.00014586,"INCLINATION":42.9994,"RA_OF_ASC_NODE":104.6989,"ARG_OF_PERICENTER":258.6477,"MEAN_ANOMALY":101.4211,"EPHEMERIS_TYPE":0,"CLASSIFICATION_TYPE":"U","NORAD_CAT_ID":63962,"ELEMENT_SET_NO":999,"REV_AT_EPOCH":3952,"BSTAR":0.00073438288,"MEAN_MOTION_DOT":0.00020018,"MEAN_MOTION_DDOT":0},{"OBJECT_NAME":"STARLINK-33801","OBJECT_ID":"2025-099M","EPOCH":"2026-01-17T22:07:48.692640","MEAN_MOTION":15.27573014,"ECCENTRICITY":7.631e-5,"INCLINATION":42.9947,"RA_OF_ASC_NODE":102.7862,"ARG_OF_PERICENTER":289.625,"MEAN_ANOMALY":70.4519,"EPHEMERIS_TYPE":0,"CLASSIFICATION_TYPE":"U","NORAD_CAT_ID":63963,"ELEMENT_SET_NO":999,"REV_AT_EPOCH":3957,"BSTAR":0.00091001613,"MEAN_MOTION_DOT":0.00024859,"MEAN_MOTION_DDOT":0},{"OBJECT_NAME":"STARLINK-34135","OBJECT_ID":"2025-099N","EPOCH":"2026-01-17T22:13:21.961632","MEAN_MOTION":15.27586927,"ECCENTRICITY":3.445e-5,"INCLINATION":43.0002,"RA_OF_ASC_NODE":102.8207,"ARG_OF_PERICENTER":21.4822,"MEAN_ANOMALY":338.6044,"EPHEMERIS_TYPE":0,"CLASSIFICATION_TYPE":"U","NORAD_CAT_ID":63964,"ELEMENT_SET_NO":999,"REV_AT_EPOCH":3957,"BSTAR":0.00057787567,"MEAN_MOTION_DOT":0.00015677,"MEAN_MOTION_DDOT":0},{"OBJECT_NAME":"STARLINK-34147","OBJECT_ID":"2025-099P","EPOCH":"2026-01-17T22:02:16.075968","MEAN_MOTION":15.27576747,"ECCENTRICITY":0.00026715,"INCLINATION":42.9939,"RA_OF_ASC_NODE":102.7585,"ARG_OF_PERICENTER":55.7397,"MEAN_ANOMALY":304.3707,"EPHEMERIS_TYPE":0,"CLASSIFICATION_TYPE":"U","NORAD_CAT_ID":63965,"ELEMENT_SET_NO":999,"REV_AT_EPOCH":3957,"BSTAR":0.00052097271,"MEAN_MOTION_DOT":0.000141,"MEAN_MOTION_DDOT":0},{"OBJECT_NAME":"STARLINK-33960","OBJECT_ID":"2025-099Q","EPOCH":"2026-01-17T21:56:42.507168","MEAN_MOTION":15.27575168,"ECCENTRICITY":2.735e-5,"INCLINATION":42.9984,"RA_OF_ASC_NODE":102.7267,"ARG_OF_PERICENTER":299.1791,"MEAN_ANOMALY":60.9034,"EPHEMERIS_TYPE":0,"CLASSIFICATION_TYPE":"U","NORAD_CAT_ID":63966,"ELEMENT_SET_NO":999,"REV_AT_EPOCH":3957,"BSTAR":4.2886682e-5,"MEAN_MOTION_DOT":9.19e-6,"MEAN_MOTION_DDOT":0},{"OBJECT_NAME":"STARLINK-34153","OBJECT_ID":"2025-099R","EPOCH":"2026-01-17T15:30:49.805856","MEAN_MOTION":15.27609554,"ECCENTRICITY":0.00012638,"INCLINATION":43.0011,"RA_OF_ASC_NODE":104.1584,"ARG_OF_PERICENTER":274.9682,"MEAN_ANOMALY":85.1026,"EPHEMERIS_TYPE":0,"CLASSIFICATION_TYPE":"U","NORAD_CAT_ID":63967,"ELEMENT_SET_NO":999,"REV_AT_EPOCH":3953,"BSTAR":0.00092035842,"MEAN_MOTION_DOT":0.00025173,"MEAN_MOTION_DDOT":0},{"OBJECT_NAME":"STARLINK-33963","OBJECT_ID":"2025-099S","EPOCH":"2026-01-17T14:02:15.596736","MEAN_MOTION":15.27559098,"ECCENTRICITY":0.00013633,"INCLINATION":42.9987,"RA_OF_ASC_NODE":104.5555,"ARG_OF_PERICENTER":248.4086,"MEAN_ANOMALY":111.6621,"EPHEMERIS_TYPE":0,"CLASSIFICATION_TYPE":"U","NORAD_CAT_ID":63968,"ELEMENT_SET_NO":999,"REV_AT_EPOCH":3952,"BSTAR":0.00076762427,"MEAN_MOTION_DOT":0.00020908,"MEAN_MOTION_DDOT":0},{"OBJECT_NAME":"STARLINK-34112","OBJECT_ID":"2025-099T","EPOCH":"2026-01-17T13:51:07.252992","MEAN_MOTION":15.2760924,"ECCENTRICITY":0.00016418,"INCLINATION":43.0017,"RA_OF_ASC_NODE":104.4988,"ARG_OF_PERICENTER":267.8539,"MEAN_ANOMALY":92.2125,"EPHEMERIS_TYPE":0,"CLASSIFICATION_TYPE":"U","NORAD_CAT_ID":63969,"ELEMENT_SET_NO":999,"REV_AT_EPOCH":3952,"BSTAR":0.00093605077,"MEAN_MOTION_DOT":0.00025609,"MEAN_MOTION_DDOT":0},{"OBJECT_NAME":"STARLINK-34084","OBJECT_ID":"2025-099U","EPOCH":"2026-01-17T13:45:34.071264","MEAN_MOTION":15.27616322,"ECCENTRICITY":0.00013694,"INCLINATION":42.9998,"RA_OF_ASC_NODE":104.4673,"ARG_OF_PERICENTER":262.9104,"MEAN_ANOMALY":97.1592,"EPHEMERIS_TYPE":0,"CLASSIFICATION_TYPE":"U","NORAD_CAT_ID":63970,"ELEMENT_SET_NO":999,"REV_AT_EPOCH":3952,"BSTAR":0.00084737483,"MEAN_MOTION_DOT":0.00023155,"MEAN_MOTION_DDOT":0},{"OBJECT_NAME":"STARLINK-34138","OBJECT_ID":"2025-099V","EPOCH":"2026-01-17T12:54:39.942720","MEAN_MOTION":15.27620319,"ECCENTRICITY":8.556e-5,"INCLINATION":43.0006,"RA_OF_ASC_NODE":101.6039,"ARG_OF_PERICENTER":274.6871,"MEAN_ANOMALY":85.3883,"EPHEMERIS_TYPE":0,"CLASSIFICATION_TYPE":"U","NORAD_CAT_ID":63971,"ELEMENT_SET_NO":999,"REV_AT_EPOCH":3955,"BSTAR":0.0010096444,"MEAN_MOTION_DOT":0.00027659,"MEAN_MOTION_DDOT":0},{"OBJECT_NAME":"STARLINK-34115","OBJECT_ID":"2025-099W","EPOCH":"2026-01-17T22:04:47.401248","MEAN_MOTION":15.27615849,"ECCENTRICITY":0.00034138,"INCLINATION":43.0024,"RA_OF_ASC_NODE":99.3122,"ARG_OF_PERICENTER":280.234,"MEAN_ANOMALY":79.8127,"EPHEMERIS_TYPE":0,"CLASSIFICATION_TYPE":"U","NORAD_CAT_ID":63972,"ELEMENT_SET_NO":999,"REV_AT_EPOCH":3961,"BSTAR":0.00073809879,"MEAN_MOTION_DOT":0.00020128,"MEAN_MOTION_DDOT":0},{"OBJECT_NAME":"STARLINK-34028","OBJECT_ID":"2025-099X","EPOCH":"2026-01-17T22:47:21.400800","MEAN_MOTION":15.27612198,"ECCENTRICITY":0.00017851,"INCLINATION":43.0046,"RA_OF_ASC_NODE":99.5311,"ARG_OF_PERICENTER":279.5358,"MEAN_ANOMALY":80.5292,"EPHEMERIS_TYPE":0,"CLASSIFICATION_TYPE":"U","NORAD_CAT_ID":63973,"ELEMENT_SET_NO":999,"REV_AT_EPOCH":3961,"BSTAR":0.00087104574,"MEAN_MOTION_DOT":0.00023808,"MEAN_MOTION_DDOT":0},{"OBJECT_NAME":"STARLINK-33942","OBJECT_ID":"2025-099Y","EPOCH":"2026-01-17T22:41:48.875712","MEAN_MOTION":15.27584358,"ECCENTRICITY":0.00010759,"INCLINATION":43.0013,"RA_OF_ASC_NODE":99.4995,"ARG_OF_PERICENTER":247.8062,"MEAN_ANOMALY":112.2675,"EPHEMERIS_TYPE":0,"CLASSIFICATION_TYPE":"U","NORAD_CAT_ID":63974,"ELEMENT_SET_NO":999,"REV_AT_EPOCH":3961,"BSTAR":0.00022822946,"MEAN_MOTION_DOT":6.024e-5,"MEAN_MOTION_DDOT":0},{"OBJECT_NAME":"STARLINK-34139","OBJECT_ID":"2025-099Z","EPOCH":"2026-01-17T22:36:15.202368","MEAN_MOTION":15.27611473,"ECCENTRICITY":0.00023225,"INCLINATION":43.0044,"RA_OF_ASC_NODE":99.4712,"ARG_OF_PERICENTER":262.3131,"MEAN_ANOMALY":97.7457,"EPHEMERIS_TYPE":0,"CLASSIFICATION_TYPE":"U","NORAD_CAT_ID":63975,"ELEMENT_SET_NO":999,"REV_AT_EPOCH":3952,"BSTAR":0.00087091942,"MEAN_MOTION_DOT":0.00023805,"MEAN_MOTION_DDOT":0}]
